OBJECT_NAME,OBJECT_ID,EPOCH,MEAN_MOTION,ECCENTRICITY,INCLINATION,RA_OF_ASC_NODE,ARG_OF_PERICENTER,MEAN_ANOMALY,EPHEMERIS_TYPE,CLASSIFICATION_TYPE,NORAD_CAT_ID,ELEMENT_SET_NO,REV_AT_EPOCH,BSTAR,MEAN_MOTION_DOT,MEAN_MOTION_DDOT
IRIDIUM 156,2018-061H,2026-07-11T12:52:26.428800,14.34217794,.0002079,86.3939,46.5441,90.8967,269.2467,0,U,43576,999,41686,.35658E-4,.12E-5,0
IRIDIUM 164,2018-061J,2026-07-11T12:25:02.643744,14.34217322,.000231,86.3940,46.5930,89.2672,270.8789,0,U,43577,999,41690,.46608E-4,.15E-5,0
IRIDIUM 159,2018-061K,2026-07-11T01:36:34.384032,14.34217261,.0002163,86.3939,46.7179,85.2103,274.9340,0,U,43578,999,41680,.87594E-5,.44E-6,0
IRIDIUM 180,2019-002A,2026-07-11T11:38:39.062976,14.34217479,.0002237,86.3989,343.4395,90.9062,269.2391,0,U,43922,999,39247,.2401E-4,.87E-6,0
IRIDIUM 176,2019-002B,2026-07-11T11:47:47.906016,14.72246139,.0002346,86.6106,343.3768,89.5366,270.6119,0,U,43923,999,40282,.65824E-4,.44E-5,0
IRIDIUM 168,2019-002C,2026-07-10T08:42:02.613600,14.34217872,.00022436,86.3988,343.9865,90.7210,269.4243,0,U,43924,999,39229,.8973003E-5,.45E-6,0
IRIDIUM 173,2019-002D,2026-07-11T09:30:46.787040,14.34217448,.000207,86.3986,343.4427,91.9171,268.2262,0,U,43925,999,39242,-.25119E-4,-.51E-6,0
IRIDIUM 169,2019-002E,2026-07-11T12:39:08.076384,14.38613085,.0001779,86.4218,15.0140,100.4383,259.7016,0,U,43926,999,39372,.10283E-4,.51E-6,0
IRIDIUM 172,2019-002F,2026-07-11T09:21:38.973888,14.34217770,.0002184,86.3984,343.4531,90.1296,270.0150,0,U,43927,999,39243,.41499E-4,.136E-5,0
IRIDIUM 175,2019-002G,2026-07-10T15:14:11.846112,14.43625714,.0005046,86.4514,280.7204,124.4714,235.6965,0,U,43928,999,40236,.47907E-4,.183E-5,0
IRIDIUM 171,2019-002H,2026-07-11T12:15:10.929024,14.34217600,.0002204,86.3994,343.7115,95.4070,264.7378,0,U,43929,999,39244,.20595E-4,.77E-6,0
IRIDIUM 170,2019-002J,2026-07-11T11:56:41.119296,14.72246731,.0002309,86.6106,343.3765,85.6855,274.4626,0,U,43930,999,40283,.66894E-4,.446E-5,0
IRIDIUM 167,2019-002K,2026-07-11T12:06:02.926656,14.34217719,.0002243,86.3987,343.4279,99.5635,260.5814,0,U,43931,999,39244,.22868E-4,.84E-6,0
IRIDIUM 181,2023-068S,2026-07-11T12:14:58.560864,14.43310981,.0002428,86.4476,46.6194,84.2816,275.8661,0,U,56726,999,16594,.4854E-4,.184E-5,0
IRIDIUM 177,2023-068T,2026-07-11T07:45:25.210080,14.80026468,.0002152,86.1982,317.3315,93.1967,266.9500,0,U,56727,999,16993,.79118E-4,.625E-5,0
IRIDIUM 174,2023-068U,2026-07-11T11:38:47.888736,14.72255189,.0002042,86.6114,343.5314,85.0379,275.1071,0,U,56728,999,16959,.68151E-4,.454E-5,0
IRIDIUM 178,2023-068V,2026-07-11T12:21:37.980288,14.80025000,.0002317,86.6532,15.1914,90.0788,270.0699,0,U,56729,999,16996,.24779E-4,.214E-5,0
IRIDIUM 179,2023-068W,2026-07-11T12:13:56.771040,14.80033209,.00023,86.6764,24.2455,92.0050,268.1435,0,U,56730,999,16996,.63469E-4,.506E-5,0
