IRIDIUM 156             
1 43576U 18061H   26192.53641700  .00000120  00000+0  35658-4 0  9990
2 43576  86.3939  46.5441 0002079  90.8967 269.2467 14.34217794416869
IRIDIUM 164             
1 43577U 18061J   26192.51739171  .00000150  00000+0  46608-4 0  9999
2 43577  86.3940  46.5930 0002310  89.2672 270.8789 14.34217322416905
IRIDIUM 159             
1 43578U 18061K   26192.06706463  .00000044  00000+0  87594-5 0  9990
2 43578  86.3939  46.7179 0002163  85.2103 274.9340 14.34217261416801
IRIDIUM 180             
1 43922U 19002A   26192.48517434  .00000087  00000+0  24010-4 0  9993
2 43922  86.3989 343.4395 0002237  90.9062 269.2391 14.34217479392475
IRIDIUM 176             
1 43923U 19002B   26192.49152669  .00000440  00000+0  65824-4 0  9991
2 43923  86.6106 343.3768 0002346  89.5366 270.6119 14.72246139402827
IRIDIUM 168             
1 43924U 19002C   26191.36253025  .00000045  00000+0  89730-5 0  9999
2 43924  86.3988 343.9865 0002243  90.7210 269.4243 14.34217872392298
IRIDIUM 173             
1 43925U 19002D   26192.39637485 -.00000051  00000+0 -25119-4 0  9999
2 43925  86.3986 343.4427 0002070  91.9171 268.2262 14.34217448392425
IRIDIUM 169             
1 43926U 19002E   26192.52717681  .00000051  00000+0  10283-4 0  9996
2 43926  86.4218  15.0140 0001779 100.4383 259.7016 14.38613085393722
IRIDIUM 172             
1 43927U 19002F   26192.39003442  .00000136  00000+0  41499-4 0  9992
2 43927  86.3984 343.4531 0002184  90.1296 270.0150 14.34217770392432
IRIDIUM 175             
1 43928U 19002G   26191.63485933  .00000183  00000+0  47907-4 0  9990
2 43928  86.4514 280.7204 0005046 124.4714 235.6965 14.43625714402365
IRIDIUM 171             
1 43929U 19002H   26192.51054316  .00000077  00000+0  20595-4 0  9992
2 43929  86.3994 343.7115 0002204  95.4070 264.7378 14.34217600392442
IRIDIUM 170             
1 43930U 19002J   26192.49769814  .00000446  00000+0  66894-4 0  9999
2 43930  86.6106 343.3765 0002309  85.6855 274.4626 14.72246731402835
IRIDIUM 167             
1 43931U 19002K   26192.50420054  .00000084  00000+0  22868-4 0  9993
2 43931  86.3987 343.4279 0002243  99.5635 260.5814 14.34217719392440
IRIDIUM 181             
1 56726U 23068S   26192.51040001  .00000184  00000+0  48540-4 0  9993
2 56726  86.4476  46.6194 0002428  84.2816 275.8661 14.43310981165942
IRIDIUM 177             
1 56727U 23068T   26192.32320845  .00000625  00000+0  79118-4 0  9995
2 56727  86.1982 317.3315 0002152  93.1967 266.9500 14.80026468169936
IRIDIUM 174             
1 56728U 23068U   26192.48527649  .00000454  00000+0  68151-4 0  9999
2 56728  86.6114 343.5314 0002042  85.0379 275.1071 14.72255189169596
IRIDIUM 178             
1 56729U 23068V   26192.51502292  .00000214  00000+0  24779-4 0  9993
2 56729  86.6532  15.1914 0002317  90.0788 270.0699 14.80025000169961
IRIDIUM 179             
1 56730U 23068W   26192.50968485  .00000506  00000+0  63469-4 0  9997
2 56730  86.6764  24.2455 0002300  92.0050 268.1435 14.80033209169963
